ONEWEB-0381             
1 49307U 21090AE  26040.28084969  .00000083  00000+0  17225-3 0  9993
2 49307  87.9217 299.9669 0001807  70.8078 289.3251 13.20771530212942
ONEWEB-0382             
1 49308U 21090AF  26040.26822279  .00000048  00000+0  85533-4 0  9995
2 49308  87.9215 299.9661 0001740  69.1207 291.0113 13.20770774212939
ONEWEB-0383             
1 49309U 21090AG  26040.22974807  .00000106  00000+0  25048-3 0  9996
2 49309  87.9032 315.2053 0001627  71.3962 288.7345 13.14504200210784
ONEWEB-0384             
1 49310U 21090AH  26040.25002315 -.00012703  00000+0 -31299-1 0  9998
2 49310  87.9218 300.0106 0001725  59.4707 251.8121 13.20813751  5164
ONEWEB-0385             
1 49311U 21090AJ  26039.27555804 -.00009883  00000+0 -24395-1 0  9999
2 49311  87.9239 300.1665 0001444  87.5045 272.6254 13.20692200212784
ONEWEB-0386             
1 49312U 21090AK  26040.27768780  .00000143  00000+0  32063-3 0  9992
2 49312  87.9214 299.9529 0001649  67.7785 292.3524 13.20772158212937
ONEWEB-0387             
1 49313U 21090AL  26040.26191195  .00000003  00000+0 -23542-4 0  9991
2 49313  87.9207 299.9964 0001962  75.1172 285.0179 13.20770854212930
ONEWEB-0388             
1 49314U 21090AM  26040.27745087 -.00000040  00000+0 -13230-3 0  9992
2 49314  87.9246 330.4354 0001766  70.3368 289.7955 13.19725202209545
ONEWEB-0389             
1 50469U 21132A   26040.01845892 -.00000055  00000+0 -17423-3 0  9993
2 50469  87.9102  31.3305 0002111  78.9960 281.1409 13.17649930201205
ONEWEB-0390             
1 50470U 21132B   26040.02015764 -.00000029  00000+0 -10914-3 0  9992
2 50470  87.9102  31.3309 0002040  93.6842 266.4523 13.17649109201206
ONEWEB-0391             
1 50471U 21132C   26040.02183751  .00000064  00000+0  13184-3 0  9994
2 50471  87.9098  31.3400 0002679  80.2358 279.9076 13.17647302201200
ONEWEB-0392             
1 50472U 21132D   26039.90033275  .00000084  00000+0  18202-3 0  9993
2 50472  87.9112  31.3215 0002159  81.1879 278.9497 13.17651223201228
ONEWEB-0393             
1 50473U 21132E   26040.02536118  .00000000  00000+0 -32474-4 0  9990
2 50473  87.9111  31.3201 0002003  84.0275 276.1085 13.17648804201238
ONEWEB-0394             
1 50474U 21132F   26040.24594220  .00000017  00000+0  95952-5 0  9991
2 50474  87.9224   0.8390 0001894  78.6357 281.4988 13.18686595204730
ONEWEB-0395             
1 50475U 21132G   26040.06476733  .00000168  00000+0  43934-3 0  9998
2 50475  87.8820  46.5646 0002087  92.4017 267.7350 13.11417633198926
ONEWEB-0396             
1 50476U 21132H   26039.93583763  .00000053  00000+0  10083-3 0  9997
2 50476  87.9222   0.9122 0001898  78.6618 281.4727 13.18686900204739
ONEWEB-0397             
1 50477U 21132J   26040.25417299  .00000057  00000+0  11207-3 0  9998
2 50477  87.9224   0.8490 0001813  74.9089 285.2244 13.18687076204750
