[{"OBJECT_NAME":"ONEWEB-0381","OBJECT_ID":"2021-090AE","EPOCH":"2026-02-09T06:44:25.413216","MEAN_MOTION":13.2077153,"ECCENTRICITY":0.0001807,"INCLINATION":87.9217,"RA_OF_ASC_NODE":299.9669,"ARG_OF_PERICENTER":70.8078,"MEAN_ANOMALY":289.3251,"EPHEMERIS_TYPE":0,"CLASSIFICATION_TYPE":"U","NORAD_CAT_ID":49307,"ELEMENT_SET_NO":999,"REV_AT_EPOCH":21294,"BSTAR":0.00017224816,"MEAN_MOTION_DOT":8.3e-7,"MEAN_MOTION_DDOT":0},{"OBJECT_NAME":"ONEWEB-0382","OBJECT_ID":"2021-090AF","EPOCH":"2026-02-09T06:26:14.449056","MEAN_MOTION":13.20770774,"ECCENTRICITY":0.00017403,"INCLINATION":87.9215,"RA_OF_ASC_NODE":299.9661,"ARG_OF_PERICENTER":69.1207,"MEAN_ANOMALY":291.0113,"EPHEMERIS_TYPE":0,"CLASSIFICATION_TYPE":"U","NORAD_CAT_ID":49308,"ELEMENT_SET_NO":999,"REV_AT_EPOCH":21293,"BSTAR":8.5532923e-5,"MEAN_MOTION_DOT":4.8e-7,"MEAN_MOTION_DDOT":0},{"OBJECT_NAME":"ONEWEB-0383","OBJECT_ID":"2021-090AG","EPOCH":"2026-02-09T05:30:50.233248","MEAN_MOTION":13.145042,"ECCENTRICITY":0.00016278,"INCLINATION":87.9032,"RA_OF_ASC_NODE":315.2053,"ARG_OF_PERICENTER":71.3962,"MEAN_ANOMALY":288.7345,"EPHEMERIS_TYPE":0,"CLASSIFICATION_TYPE":"U","NORAD_CAT_ID":49309,"ELEMENT_SET_NO":999,"REV_AT_EPOCH":21078,"BSTAR":0.00025047727,"MEAN_MOTION_DOT":1.06e-6,"MEAN_MOTION_DDOT":0},{"OBJECT_NAME":"ONEWEB-0384","OBJECT_ID":"2021-090AH","EPOCH":"2026-02-09T06:00:02.000160","MEAN_MOTION":13.20813751,"ECCENTRICITY":0.00017258,"INCLINATION":87.9218,"RA_OF_ASC_NODE":300.0106,"ARG_OF_PERICENTER":59.4707,"MEAN_ANOMALY":251.8121,"EPHEMERIS_TYPE":0,"CLASSIFICATION_TYPE":"U","NORAD_CAT_ID":49310,"ELEMENT_SET_NO":999,"REV_AT_EPOCH":516,"BSTAR":-0.031299145,"MEAN_MOTION_DOT":-0.00012703,"MEAN_MOTION_DDOT":0},{"OBJECT_NAME":"ONEWEB-0385","OBJECT_ID":"2021-090AJ","EPOCH":"2026-02-08T06:36:48.214656","MEAN_MOTION":13.206922,"ECCENTRICITY":0.0001444,"INCLINATION":87.9239,"RA_OF_ASC_NODE":300.1665,"ARG_OF_PERICENTER":87.5045,"MEAN_ANOMALY":272.6254,"EPHEMERIS_TYPE":0,"CLASSIFICATION_TYPE":"U","NORAD_CAT_ID":49311,"ELEMENT_SET_NO":999,"REV_AT_EPOCH":21278,"BSTAR":-0.024395,"MEAN_MOTION_DOT":-9.883e-5,"MEAN_MOTION_DDOT":0},{"OBJECT_NAME":"ONEWEB-0386","OBJECT_ID":"2021-090AK","EPOCH":"2026-02-09T06:39:52.225920","MEAN_MOTION":13.20772158,"ECCENTRICITY":0.0001649,"INCLINATION":87.9214,"RA_OF_ASC_NODE":299.9529,"ARG_OF_PERICENTER":67.7785,"MEAN_ANOMALY":292.3524,"EPHEMERIS_TYPE":0,"CLASSIFICATION_TYPE":"U","NORAD_CAT_ID":49312,"ELEMENT_SET_NO":999,"REV_AT_EPOCH":21293,"BSTAR":0.00032062809,"MEAN_MOTION_DOT":1.43e-6,"MEAN_MOTION_DDOT":0},{"OBJECT_NAME":"ONEWEB-0387","OBJECT_ID":"2021-090AL","EPOCH":"2026-02-09T06:17:09.192480","MEAN_MOTION":13.20770854,"ECCENTRICITY":0.00019627,"INCLINATION":87.9207,"RA_OF_ASC_NODE":299.9964,"ARG_OF_PERICENTER":75.1172,"MEAN_ANOMALY":285.0179,"EPHEMERIS_TYPE":0,"CLASSIFICATION_TYPE":"U","NORAD_CAT_ID":49313,"ELEMENT_SET_NO":999,"REV_AT_EPOCH":21293,"BSTAR":-2.3541957e-5,"MEAN_MOTION_DOT":3.0e-8,"MEAN_MOTION_DDOT":0},{"OBJECT_NAME":"ONEWEB-0388","OBJECT_ID":"2021-090AM","EPOCH":"2026-02-09T06:39:31.755168","MEAN_MOTION":13.19725202,"ECCENTRICITY":0.0001766,"INCLINATION":87.9246,"RA_OF_ASC_NODE":330.4354,"ARG_OF_PERICENTER":70.3368,"MEAN_ANOMALY":289.7955,"EPHEMERIS_TYPE":0,"CLASSIFICATION_TYPE":"U","NORAD_CAT_ID":49314,"ELEMENT_SET_NO":999,"REV_AT_EPOCH":20954,"BSTAR":-0.00013229656,"MEAN_MOTION_DOT":-4.0e-7,"MEAN_MOTION_DDOT":0},{"OBJECT_NAME":"ONEWEB-0389","OBJECT_ID":"2021-132A","EPOCH":"2026-02-09T00:26:34.850688","MEAN_MOTION":13.1764993,"ECCENTRICITY":0.00021117,"INCLINATION":87.9102,"RA_OF_ASC_NODE":31.3305,"ARG_OF_PERICENTER":78.996,"MEAN_ANOMALY":281.1409,"EPHEMERIS_TYPE":0,"CLASSIFICATION_TYPE":"U","NORAD_CAT_ID":50469,"ELEMENT_SET_NO":999,"REV_AT_EPOCH":20120,"BSTAR":-0.0001742328,"MEAN_MOTION_DOT":-5.5e-7,"MEAN_MOTION_DDOT":0},{"OBJECT_NAME":"ONEWEB-0390","OBJECT_ID":"2021-132B","EPOCH":"2026-02-09T00:29:01.620096","MEAN_MOTION":13.17649109,"ECCENTRICITY":0.00020404,"INCLINATION":87.9102,"RA_OF_ASC_NODE":31.3309,"ARG_OF_PERICENTER":93.6842,"MEAN_ANOMALY":266.4523,"EPHEMERIS_TYPE":0,"CLASSIFICATION_TYPE":"U","NORAD_CAT_ID":50470,"ELEMENT_SET_NO":999,"REV_AT_EPOCH":20120,"BSTAR":-0.00010914431,"MEAN_MOTION_DOT":-2.9e-7,"MEAN_MOTION_DDOT":0},{"OBJECT_NAME":"ONEWEB-0391","OBJECT_ID":"2021-132C","EPOCH":"2026-02-09T00:31:26.760864","MEAN_MOTION":13.17647302,"ECCENTRICITY":0.00026791,"INCLINATION":87.9098,"RA_OF_ASC_NODE":31.34,"ARG_OF_PERICENTER":80.2358,"MEAN_ANOMALY":279.9076,"EPHEMERIS_TYPE":0,"CLASSIFICATION_TYPE":"U","NORAD_CAT_ID":50471,"ELEMENT_SET_NO":999,"REV_AT_EPOCH":20120,"BSTAR":0.00013184009,"MEAN_MOTION_DOT":6.4e-7,"MEAN_MOTION_DDOT":0},{"OBJECT_NAME":"ONEWEB-0392","OBJECT_ID":"2021-132D","EPOCH":"2026-02-08T21:36:28.749600","MEAN_MOTION":13.17651223,"ECCENTRICITY":0.00021598,"INCLINATION":87.9112,"RA_OF_ASC_NODE":31.3215,"ARG_OF_PERICENTER":81.1879,"MEAN_ANOMALY":278.9497,"EPHEMERIS_TYPE":0,"CLASSIFICATION_TYPE":"U","NORAD_CAT_ID":50472,"ELEMENT_SET_NO":999,"REV_AT_EPOCH":20122,"BSTAR":0.00018202469,"MEAN_MOTION_DOT":8.4e-7,"MEAN_MOTION_DDOT":0},{"OBJECT_NAME":"ONEWEB-0393","OBJECT_ID":"2021-132E","EPOCH":"2026-02-09T00:36:31.205952","MEAN_MOTION":13.17648804,"ECCENTRICITY":0.00020033,"INCLINATION":87.9111,"RA_OF_ASC_NODE":31.3201,"ARG_OF_PERICENTER":84.0275,"MEAN_ANOMALY":276.1085,"EPHEMERIS_TYPE":0,"CLASSIFICATION_TYPE":"U","NORAD_CAT_ID":50473,"ELEMENT_SET_NO":999,"REV_AT_EPOCH":20123,"BSTAR":-3.2473803e-5,"MEAN_MOTION_DOT":0,"MEAN_MOTION_DDOT":0},{"OBJECT_NAME":"ONEWEB-0394","OBJECT_ID":"2021-132F","EPOCH":"2026-02-09T05:54:09.406080","MEAN_MOTION":13.18686595,"ECCENTRICITY":0.00018949,"INCLINATION":87.9224,"RA_OF_ASC_NODE":0.839,"ARG_OF_PERICENTER":78.6357,"MEAN_ANOMALY":281.4988,"EPHEMERIS_TYPE":0,"CLASSIFICATION_TYPE":"U","NORAD_CAT_ID":50474,"ELEMENT_SET_NO":999,"REV_AT_EPOCH":20473,"BSTAR":9.595235e-6,"MEAN_MOTION_DOT":1.7e-7,"MEAN_MOTION_DDOT":0},{"OBJECT_NAME":"ONEWEB-0395","OBJECT_ID":"2021-132G","EPOCH":"2026-02-09T01:33:15.897312","MEAN_MOTION":13.11417633,"ECCENTRICITY":0.00020873,"INCLINATION":87.882,"RA_OF_ASC_NODE":46.5646,"ARG_OF_PERICENTER":92.4017,"MEAN_ANOMALY":267.735,"EPHEMERIS_TYPE":0,"CLASSIFICATION_TYPE":"U","NORAD_CAT_ID":50475,"ELEMENT_SET_NO":999,"REV_AT_EPOCH":19892,"BSTAR":0.00043934168,"MEAN_MOTION_DOT":1.68e-6,"MEAN_MOTION_DDOT":0},{"OBJECT_NAME":"ONEWEB-0396","OBJECT_ID":"2021-132H","EPOCH":"2026-02-08T22:27:36.371232","MEAN_MOTION":13.186869,"ECCENTRICITY":0.00018983,"INCLINATION":87.9222,"RA_OF_ASC_NODE":0.9122,"ARG_OF_PERICENTER":78.6618,"MEAN_ANOMALY":281.4727,"EPHEMERIS_TYPE":0,"CLASSIFICATION_TYPE":"U","NORAD_CAT_ID":50476,"ELEMENT_SET_NO":999,"REV_AT_EPOCH":20473,"BSTAR":0.00010082899,"MEAN_MOTION_DOT":5.3e-7,"MEAN_MOTION_DDOT":0},{"OBJECT_NAME":"ONEWEB-0397","OBJECT_ID":"2021-132J","EPOCH":"2026-02-09T06:06:00.546336","MEAN_MOTION":13.18687076,"ECCENTRICITY":0.00018138,"INCLINATION":87.9224,"RA_OF_ASC_NODE":0.849,"ARG_OF_PERICENTER":74.9089,"MEAN_ANOMALY":285.2244,"EPHEMERIS_TYPE":0,"CLASSIFICATION_TYPE":"U","NORAD_CAT_ID":50477,"ELEMENT_SET_NO":999,"REV_AT_EPOCH":20475,"BSTAR":0.00011206593,"MEAN_MOTION_DOT":5.7e-7,"MEAN_MOTION_DDOT":0}]
